CCSDS_OMM_VERS = 2.0
CREATION_DATE  = 
ORIGINATOR     = 

OBJECT_NAME    = STARLINK-35505
OBJECT_ID      = 2025-253L
CENTER_NAME    = EARTH
REF_FRAME      = TEME
TIME_SYSTEM    = UTC
MEAN_ELEMENT_THEORY = SGP/SGP4

EPOCH          = 2025-11-18T22:00:03.999744
MEAN_MOTION    = 15.78121610
ECCENTRICITY   = .0001605
INCLINATION    = 42.9968
RA_OF_ASC_NODE = 125.2424
ARG_OF_PERICENTER = 274.1312
MEAN_ANOMALY   = 356.6909

EPHEMERIS_TYPE = 0
CLASSIFICATION_TYPE = U
NORAD_CAT_ID   = 66329
ELEMENT_SET_NO = 999
REV_AT_EPOCH   = 309
BSTAR          = -.10612244E-1
MEAN_MOTION_DOT = -.1659348E-1
MEAN_MOTION_DDOT = 0

CCSDS_OMM_VERS = 2.0
CREATION_DATE  = 
ORIGINATOR     = 

OBJECT_NAME    = STARLINK-35512
OBJECT_ID      = 2025-253M
CENTER_NAME    = EARTH
REF_FRAME      = TEME
TIME_SYSTEM    = UTC
MEAN_ELEMENT_THEORY = SGP/SGP4

EPOCH          = 2025-11-18T22:00:03.999744
MEAN_MOTION    = 15.77634776
ECCENTRICITY   = .00016703
INCLINATION    = 42.9969
RA_OF_ASC_NODE = 125.2137
ARG_OF_PERICENTER = 273.7039
MEAN_ANOMALY   = 8.2076

EPHEMERIS_TYPE = 0
CLASSIFICATION_TYPE = U
NORAD_CAT_ID   = 66330
ELEMENT_SET_NO = 999
REV_AT_EPOCH   = 309
BSTAR          = -.11337307E-1
MEAN_MOTION_DOT = -.1725263E-1
MEAN_MOTION_DDOT = 0

CCSDS_OMM_VERS = 2.0
CREATION_DATE  = 
ORIGINATOR     = 

OBJECT_NAME    = STARLINK-35257
OBJECT_ID      = 2025-253N
CENTER_NAME    = EARTH
REF_FRAME      = TEME
TIME_SYSTEM    = UTC
MEAN_ELEMENT_THEORY = SGP/SGP4

EPOCH          = 2025-11-18T22:00:03.999744
MEAN_MOTION    = 15.77338444
ECCENTRICITY   = .00017541
INCLINATION    = 42.9970
RA_OF_ASC_NODE = 125.1725
ARG_OF_PERICENTER = 270.9277
MEAN_ANOMALY   = 27.1656

EPHEMERIS_TYPE = 0
CLASSIFICATION_TYPE = U
NORAD_CAT_ID   = 66331
ELEMENT_SET_NO = 999
REV_AT_EPOCH   = 282
BSTAR          = -.12108599E-1
MEAN_MOTION_DOT = -.1806638E-1
MEAN_MOTION_DDOT = 0

CCSDS_OMM_VERS = 2.0
CREATION_DATE  = 
ORIGINATOR     = 

OBJECT_NAME    = STARLINK-35322
OBJECT_ID      = 2025-253P
CENTER_NAME    = EARTH
REF_FRAME      = TEME
TIME_SYSTEM    = UTC
MEAN_ELEMENT_THEORY = SGP/SGP4

EPOCH          = 2025-11-18T22:00:03.999744
MEAN_MOTION    = 15.77501623
ECCENTRICITY   = .00013968
INCLINATION    = 42.9971
RA_OF_ASC_NODE = 125.1981
ARG_OF_PERICENTER = 272.5666
MEAN_ANOMALY   = 15.4048

EPHEMERIS_TYPE = 0
CLASSIFICATION_TYPE = U
NORAD_CAT_ID   = 66332
ELEMENT_SET_NO = 999
REV_AT_EPOCH   = 309
BSTAR          = -.10970865E-1
MEAN_MOTION_DOT = -.1666748E-1
MEAN_MOTION_DDOT = 0

CCSDS_OMM_VERS = 2.0
CREATION_DATE  = 
ORIGINATOR     = 

OBJECT_NAME    = STARLINK-35400
OBJECT_ID      = 2025-253Q
CENTER_NAME    = EARTH
REF_FRAME      = TEME
TIME_SYSTEM    = UTC
MEAN_ELEMENT_THEORY = SGP/SGP4

EPOCH          = 2025-11-18T22:00:03.999744
MEAN_MOTION    = 15.77371500
ECCENTRICITY   = .00015757
INCLINATION    = 42.9965
RA_OF_ASC_NODE = 125.1768
ARG_OF_PERICENTER = 275.1363
MEAN_ANOMALY   = 20.9573

EPHEMERIS_TYPE = 0
CLASSIFICATION_TYPE = U
NORAD_CAT_ID   = 66333
ELEMENT_SET_NO = 999
REV_AT_EPOCH   = 309
BSTAR          = -.11974921E-1
MEAN_MOTION_DOT = -.1791349E-1
MEAN_MOTION_DDOT = 0

CCSDS_OMM_VERS = 2.0
CREATION_DATE  = 
ORIGINATOR     = 

OBJECT_NAME    = STARLINK-35407
OBJECT_ID      = 2025-253R
CENTER_NAME    = EARTH
REF_FRAME      = TEME
TIME_SYSTEM    = UTC
MEAN_ELEMENT_THEORY = SGP/SGP4

EPOCH          = 2025-11-18T22:00:03.999744
MEAN_MOTION    = 15.77412159
ECCENTRICITY   = .00015066
INCLINATION    = 42.9974
RA_OF_ASC_NODE = 125.1936
ARG_OF_PERICENTER = 271.5351
MEAN_ANOMALY   = 18.5116

EPHEMERIS_TYPE = 0
CLASSIFICATION_TYPE = U
NORAD_CAT_ID   = 66334
ELEMENT_SET_NO = 999
REV_AT_EPOCH   = 309
BSTAR          = -.10504586E-1
MEAN_MOTION_DOT = -.1567642E-1
MEAN_MOTION_DDOT = 0

CCSDS_OMM_VERS = 2.0
CREATION_DATE  = 
ORIGINATOR     = 

OBJECT_NAME    = STARLINK-35417
OBJECT_ID      = 2025-253S
CENTER_NAME    = EARTH
REF_FRAME      = TEME
TIME_SYSTEM    = UTC
MEAN_ELEMENT_THEORY = SGP/SGP4

EPOCH          = 2025-11-18T22:00:03.999744
MEAN_MOTION    = 15.77094671
ECCENTRICITY   = .00017115
INCLINATION    = 42.9972
RA_OF_ASC_NODE = 125.1519
ARG_OF_PERICENTER = 268.8122
MEAN_ANOMALY   = 37.4999

EPHEMERIS_TYPE = 0
CLASSIFICATION_TYPE = U
NORAD_CAT_ID   = 66335
ELEMENT_SET_NO = 999
REV_AT_EPOCH   = 309
BSTAR          = -.12904828E-1
MEAN_MOTION_DOT = -.1891456E-1
MEAN_MOTION_DDOT = 0

CCSDS_OMM_VERS = 2.0
CREATION_DATE  = 
ORIGINATOR     = 

OBJECT_NAME    = STARLINK-35404
OBJECT_ID      = 2025-253T
CENTER_NAME    = EARTH
REF_FRAME      = TEME
TIME_SYSTEM    = UTC
MEAN_ELEMENT_THEORY = SGP/SGP4

EPOCH          = 2025-11-18T22:00:03.999744
MEAN_MOTION    = 15.77248328
ECCENTRICITY   = .00013476
INCLINATION    = 42.9968
RA_OF_ASC_NODE = 125.1673
ARG_OF_PERICENTER = 275.4234
MEAN_ANOMALY   = 24.8232

EPHEMERIS_TYPE = 0
CLASSIFICATION_TYPE = U
NORAD_CAT_ID   = 66336
ELEMENT_SET_NO = 999
REV_AT_EPOCH   = 319
BSTAR          = -.12225981E-1
MEAN_MOTION_DOT = -.1815121E-1
MEAN_MOTION_DDOT = 0

CCSDS_OMM_VERS = 2.0
CREATION_DATE  = 
ORIGINATOR     = 

OBJECT_NAME    = STARLINK-34783
OBJECT_ID      = 2025-253U
CENTER_NAME    = EARTH
REF_FRAME      = TEME
TIME_SYSTEM    = UTC
MEAN_ELEMENT_THEORY = SGP/SGP4

EPOCH          = 2025-11-18T22:00:03.999744
MEAN_MOTION    = 15.76905791
ECCENTRICITY   = .00014886
INCLINATION    = 42.9974
RA_OF_ASC_NODE = 125.1464
ARG_OF_PERICENTER = 277.5091
MEAN_ANOMALY   = 31.0227

EPHEMERIS_TYPE = 0
CLASSIFICATION_TYPE = U
NORAD_CAT_ID   = 66337
ELEMENT_SET_NO = 999
REV_AT_EPOCH   = 314
BSTAR          = -.1301004E-1
MEAN_MOTION_DOT = -.1890597E-1
MEAN_MOTION_DDOT = 0

CCSDS_OMM_VERS = 2.0
CREATION_DATE  = 
ORIGINATOR     = 

OBJECT_NAME    = STARLINK-35477
OBJECT_ID      = 2025-253V
CENTER_NAME    = EARTH
REF_FRAME      = TEME
TIME_SYSTEM    = UTC
MEAN_ELEMENT_THEORY = SGP/SGP4

EPOCH          = 2025-11-18T22:00:03.999744
MEAN_MOTION    = 15.77096752
ECCENTRICITY   = .00017044
INCLINATION    = 42.9968
RA_OF_ASC_NODE = 125.1578
ARG_OF_PERICENTER = 271.4027
MEAN_ANOMALY   = 32.9839

EPHEMERIS_TYPE = 0
CLASSIFICATION_TYPE = U
NORAD_CAT_ID   = 66338
ELEMENT_SET_NO = 999
REV_AT_EPOCH   = 319
BSTAR          = -.12874184E-1
MEAN_MOTION_DOT = -.1887705E-1
MEAN_MOTION_DDOT = 0

CCSDS_OMM_VERS = 2.0
CREATION_DATE  = 
ORIGINATOR     = 

OBJECT_NAME    = STARLINK-35443
OBJECT_ID      = 2025-253W
CENTER_NAME    = EARTH
REF_FRAME      = TEME
TIME_SYSTEM    = UTC
MEAN_ELEMENT_THEORY = SGP/SGP4

EPOCH          = 2025-11-18T22:00:03.999744
MEAN_MOTION    = 15.75931091
ECCENTRICITY   = .00015841
INCLINATION    = 42.9974
RA_OF_ASC_NODE = 125.1287
ARG_OF_PERICENTER = 273.1391
MEAN_ANOMALY   = 42.0785

EPHEMERIS_TYPE = 0
CLASSIFICATION_TYPE = U
NORAD_CAT_ID   = 66339
ELEMENT_SET_NO = 999
REV_AT_EPOCH   = 314
BSTAR          = -.78308736E-2
MEAN_MOTION_DOT = -.1118915E-1
MEAN_MOTION_DDOT = 0

CCSDS_OMM_VERS = 2.0
CREATION_DATE  = 
ORIGINATOR     = 

OBJECT_NAME    = STARLINK-35218
OBJECT_ID      = 2025-253X
CENTER_NAME    = EARTH
REF_FRAME      = TEME
TIME_SYSTEM    = UTC
MEAN_ELEMENT_THEORY = SGP/SGP4

EPOCH          = 2025-11-18T22:00:03.999744
MEAN_MOTION    = 15.77166303
ECCENTRICITY   = .00017216
INCLINATION    = 42.9970
RA_OF_ASC_NODE = 125.1617
ARG_OF_PERICENTER = 268.1329
MEAN_ANOMALY   = 34.2226

EPHEMERIS_TYPE = 0
CLASSIFICATION_TYPE = U
NORAD_CAT_ID   = 66340
ELEMENT_SET_NO = 999
REV_AT_EPOCH   = 319
BSTAR          = -.12760359E-1
MEAN_MOTION_DOT = -.1878335E-1
MEAN_MOTION_DDOT = 0

