STARLINK-35505          
1 66329U 25253L   25322.91671296 -.01659348  00000+0 -10612-1 0  9996
2 66329  42.9968 125.2424 0001605 274.1312 356.6909 15.78121610  3090
STARLINK-35512          
1 66330U 25253M   25322.91671296 -.01725263  00000+0 -11337-1 0  9993
2 66330  42.9969 125.2137 0001670 273.7039   8.2076 15.77634776  3093
STARLINK-35257          
1 66331U 25253N   25322.91671296 -.01806638  00000+0 -12109-1 0  9998
2 66331  42.9970 125.1725 0001754 270.9277  27.1656 15.77338444  2821
STARLINK-35322          
1 66332U 25253P   25322.91671296 -.01666748  00000+0 -10971-1 0  9990
2 66332  42.9971 125.1981 0001396 272.5666  15.4048 15.77501623  3095
STARLINK-35400          
1 66333U 25253Q   25322.91671296 -.01791349  00000+0 -11975-1 0  9992
2 66333  42.9965 125.1768 0001575 275.1363  20.9573 15.77371500  3097
STARLINK-35407          
1 66334U 25253R   25322.91671296 -.01567642  00000+0 -10505-1 0  9998
2 66334  42.9974 125.1936 0001506 271.5351  18.5116 15.77412159  3098
STARLINK-35417          
1 66335U 25253S   25322.91671296 -.01891456  00000+0 -12905-1 0  9998
2 66335  42.9972 125.1519 0001711 268.8122  37.4999 15.77094671  3091
STARLINK-35404          
1 66336U 25253T   25322.91671296 -.01815121  00000+0 -12226-1 0  9990
2 66336  42.9968 125.1673 0001347 275.4234  24.8232 15.77248328  3192
STARLINK-34783          
1 66337U 25253U   25322.91671296 -.01890597  00000+0 -13010-1 0  9993
2 66337  42.9974 125.1464 0001488 277.5091  31.0227 15.76905791  3140
STARLINK-35477          
1 66338U 25253V   25322.91671296 -.01887705  00000+0 -12874-1 0  9998
2 66338  42.9968 125.1578 0001704 271.4027  32.9839 15.77096752  3196
STARLINK-35443          
1 66339U 25253W   25322.91671296 -.01118915  00000+0 -78309-2 0  9995
2 66339  42.9974 125.1287 0001584 273.1391  42.0785 15.75931091  3149
STARLINK-35218          
1 66340U 25253X   25322.91671296 -.01878335  00000+0 -12760-1 0  9994
2 66340  42.9970 125.1617 0001721 268.1329  34.2226 15.77166303  3198
